#cP2012 10 20  0  0  0.00000000      96 ORBIT IGb08 HLM  IGS
## 1710 518400.00000000   900.00000000 56220 0.0000000000000
+   32   G01G02G03G04G05G06G07G08G09G10G11G12G13G14G15G16G17
+        G18G19G20G21G22G23G24G25G26G27G28G29G30G31G32  0  0
+          0  0  0  0  0  0  0  0  0  0  0  0  0  0  0  0  0
+          0  0  0  0  0  0  0  0  0  0  0  0  0  0  0  0  0
+          0  0  0  0  0  0  0  0  0  0  0  0  0  0  0  0  0
++         2  2  3  2  2  2  2  2  2  2  2  2  2  2  2  2  2
++         2  2  2  2  2  2  0  3  2  0  2  2  3  3  2  0  0
++         0  0  0  0  0  0  0  0  0  0  0  0  0  0  0  0  0
++         0  0  0  0  0  0  0  0  0  0  0  0  0  0  0  0  0
++         0  0  0  0  0  0  0  0  0  0  0  0  0  0  0  0  0
%c G  cc GPS ccc cccc cccc cccc cccc ccccc ccccc ccccc ccccc
%c cc cc ccc ccc cccc cccc cccc cccc ccccc ccccc ccccc ccccc
%f  1.2500000  1.025000000  0.00000000000  0.000000000000000
%f  0.0000000  0.000000000  0.00000000000  0.000000000000000
%i    0    0    0    0      0      0      0      0         0
%i    0    0    0    0      0      0      0      0         0
/* RAPID ORBIT COMBINATION FROM WEIGHTED AVERAGE OF:        
/* cod emr esa gfz jpl ngs sio usn whu                      
/* REFERENCED TO IGS TIME (IGST) AND TO WEIGHTED MEAN POLE: 
/* PCV:IGS08_1710 OL/AL:FES2004  NONE     Y  ORB:CMB CLK:CMB
*  2012 10 20 23 15  0.00000000
PG01  -6876.444217  18408.522416 -17860.868551    278.686964  4  6  8 111       
PG02  22107.319438 -14182.123254   1063.285927    406.532142  8 10  7 138       
PG03 -10644.816888  16542.776462  17238.679363    117.290572  7 10  4  98       
PG04  23579.067495  -3118.572266 -12398.715739     22.110261  6 10  5 143       
PG05  15362.677744  -7820.721512  20219.608157   -360.923417  8  5  6 131       
PG06 -14001.381418  10587.868739  19944.243584    479.533060  8  5  5  98       
PG07   8867.766096  12088.364635  21973.380965    135.802436  5  5  6 111       
PG08  19948.907042   3533.691247  17581.877535      2.481424  7  8  8 116       
PG09  11234.135841 -18692.602356 -15752.644721    193.806144 10  9 10 132       
PG10  24194.416466   7671.589341   8236.521262    -55.872163  9  4  9 139       
PG11  -8869.318639  22408.015867 -11252.251596   -314.854375  7  6  6  77       
PG12  -2770.076380 -17379.067332 -19971.783686     97.250098  8  9  7  86       
PG13   5545.865345  23084.691780  11656.103401    172.989777  6  6  7 125       
PG14 -13683.649932  -8247.162418 -21048.414014    215.227505 10  4  4 112       
PG15   5029.531943 -24776.565533   7738.031326    -97.752720  9  7  4 112       
PG16 -15442.817808   6487.300267  20686.111962   -248.274585  9  6  7 116       
PG17  14248.631208   7685.506358 -20916.618693     86.078849  6  9  8 140       
PG18 -19429.054513 -17240.943064   6755.246464    220.659782 10  7  8 119       
PG19  -8621.475162  23090.456727   9274.599332   -314.753298  8  4  2 109       
PG20   5233.684090  18367.442623 -18649.113654     71.067677  8  7  7 108       
PG21 -13117.250806 -10597.235299  21127.437378   -257.139929  8  7  6 121       
PG22 -24260.641167  -8954.715858  -6155.151327    149.733860  9  8  8 108       
PG23   -574.090352  26338.044041   -277.951366    152.319816  9  6  8 117       
PG24  -6478.235088  18577.426863  18197.758431 999999.999999
PG25 -15019.455817 -18201.017025 -12292.357853     47.366150 12  7  9 122       
PG26  12324.979950 -16286.381863  16157.926150   -239.174241  5  7  5 122       
PG27 -23533.568225  -4956.193660  11318.056291 999999.999999
PG28  23151.151869  12810.826779  -2822.258004    196.905444  6  7  8 143       
PG29  -5192.942287 -24434.266353   9137.494096    368.316476  9  7  6 117       
PG30 -22777.900430   -121.035838  13283.907104   -355.634750  8 12 12 128       
PG31 -24162.717925   6094.272101  -9355.592420    281.909571 10 10  9 134       
PG32  -5151.235240  14905.071664 -21240.776365   -500.157637  7  9 10 105       
*  2012 10 20 23 30  0.00000000
PG01  -8610.396405  19295.410194 -16077.374847    278.688485  4  6  9 103       
PG02  22253.487717 -13849.605560  -1777.082792    406.533314  9 10  7 148       
PG03 -11204.308411  14443.344616  18691.639502    117.294121  7 10  4 114       
PG04  22425.757278  -2136.693694 -14574.346445     22.120618  6 10  6 146       
PG05  17295.785672  -6662.491544  19053.163819   -360.925980  8  6  7 135       
PG06 -14324.000872   8281.216878  20820.893211    479.524571  8  5  6  99       
PG07   6712.938182  13360.758400  21975.508668    135.806444  6  5  7 102       
PG08  18115.715658   4478.859598  19228.445787      2.481425  7  8  8 118       
PG09  12641.510240 -19433.783054 -13565.377877    193.808224 10  9 11 123       
PG10  24779.397492   8295.178428   5584.489422    -55.872722  9  5 10 133       
PG11  -9927.634392  22967.499071  -8877.476534   -314.857629  7  7  6 110       
PG12   -713.564302 -16276.746042 -21035.615093     97.251863  8  9  7  17       
PG13   5291.361802  24276.382845   9091.834954    172.987295  6  6  7 125       
PG14 -13528.967096 -10629.243914 -20079.649535    215.228324 10  5  5 129       
PG15   5381.110329 -23752.392687  10308.184209    -97.753601 10  7  4 110       
PG16 -17372.888270   5260.008728  19496.515912   -248.275120  9  6  8 124       
PG17  14160.400104  10056.451604 -19979.507838     86.075815  6  9  8 141       
PG18 -18527.423907 -17078.261084   9322.920668    220.661324 10  7  8 124       
PG19  -8801.755421  21850.281771  11789.624975   -314.756125  8  5  2 103       
PG20   3203.922844  17559.176251 -19851.750836     71.068653  8  7  7 109       
PG21 -11138.716971 -11846.625329  21555.780987   -257.141770  8  7  6 122       
PG22 -24601.045024  -9522.671003  -3448.475766    149.734572 10  8  9  74       
PG23   -870.455307  26139.100147  -3142.538069    152.316404  9  6  8 123       
PG24  -8200.738963  19494.142187  16461.244723 999999.999999
PG25 -13586.604847 -17645.883544 -14560.729405     47.367646 12  7  9 139       
PG26  12361.996887 -14209.886648  17954.904323   -239.162159  6  7  5 117       
PG27 -24465.776921  -5670.849399   8762.265340 999999.999999
PG28  23243.329506  13081.429189     55.063501    196.908698  7  7  9 140       
PG29  -4954.137792 -25316.256988   6467.079576    368.320008  9  6  6 122       
PG30 -24021.606860   -872.151177  10915.487667   -355.619365  8 12 13 134       
PG31 -23185.357340   5329.720567 -11878.604208    281.911727 10 10  8 135       
PG32  -7234.665402  13552.024401 -21490.794322   -500.161132  7  9 10 108       
*  2012 10 20 23 45  0.00000000
PG01 -10118.703238  20145.581554 -14016.908127    278.690051  4  6  9 105       
PG02  22154.931823 -13333.199635  -4585.835870    406.534214  9 11  7 149       
PG03 -11893.254529  12227.232910  19807.406609    117.297596  7 10  4 111       
PG04  21135.427167   -967.682199 -16506.655255     22.130879  7 11  6 138       
PG05  19147.565033  -5667.154877  17559.623297   -360.928591  9  7  7 139       
PG06 -14769.312147   5918.518331  21340.662674    479.515934  8  5  6 103       
PG07   4645.794772  14738.446038  21600.361341    135.810842  6  5  7 106       
PG08  16193.273882   5614.951273  20552.720011      2.481611  7  8  8 117       
PG09  13799.898791 -20103.434636 -11152.414022    193.811375 11 10 11 117       
PG10  25122.697258   8753.083542   2838.031745    -55.872173  9  6 10 119       
PG11 -10795.028063  23356.101431  -6349.762128   -314.861316  7  7  6 112       
PG12   1492.307525 -15245.658525 -21739.393247     97.253886  9  9  7  95       
PG13   5104.972165  25178.291312   6369.258033    172.985131  6  6  8 120       
PG14 -13500.999446 -12883.505964 -18760.742184    215.228914 10  6  7 139       
PG15   5813.685088 -22467.332195  12698.628864    -97.754663 10  8  4 103       
PG16 -19230.401216   4214.436307  17974.356941   -248.275665  9  6  9 131       
PG17  14189.967411  12299.575650 -18695.201848     86.072755  5  9  8 137       
PG18 -17370.668462 -16840.008207  11735.580475    220.663079 11  8  8 118       
PG19  -9044.822876  20346.007257  14096.687522   -314.759549  8  6  2 102       
PG20   1030.875723  16804.742893 -20717.964392     71.069952  8  8  6 119       
PG21  -9197.207208 -13210.323116  21631.044271   -257.143581  9  7  6 121       
PG22 -24690.195847  -9940.086921   -682.722019    149.735409 10  9  9  42       
PG23  -1201.583011  25632.125456  -5951.679042    152.312560  8  7  8 135       
PG24  -9702.531946  20379.689300  14448.983239 999999.999999
PG25 -11904.956147 -17068.950108 -16579.866133     47.369052 13  8  9 145       
PG26  12510.968933 -11946.455692  19423.373182   -239.149885  6  8  6 112       
PG27 -25165.587897  -6205.360106   6056.308245 999999.999999
PG28  23064.936974  13191.388188   2931.507049    196.911938  8  7  9 142       
PG29  -4748.063562 -25901.833760   3685.790966    368.323879 10  6  6 127       
PG30 -25035.383482  -1463.369349   8355.742961   -355.604081  9 13 13 133       
PG31 -22023.850668   4356.021204 -14197.862115    281.913808 10 10  8 140       
PG32  -9393.801375  12298.855736 -21364.992697   -500.164667  7 10 10 100       
EOF
